ZHUHAI-1 02 (CAS-4B)    
1 42759U 17034B   23102.56352486  .00009399  00000+0  48904-3 0  9996
2 42759  43.0150 120.1694 0010089  30.2434 113.6672 15.16166059321674
ZHUHAI-1 01 (CAS-4A)    
1 42761U 17034D   23102.51335512  .00009405  00000+0  48858-3 0  9991
2 42761  43.0153 118.9996 0010823  32.1636 101.5943 15.16215830321670
MAX VALIER SAT          
1 42778U 17036P   23102.10057793  .00024112  00000+0  69457-3 0  9998
2 42778  97.1656 138.6152 0007297 353.7446   6.3706 15.35712941322576
RADFXSAT (FOX-1B)       
1 43017U 17073E   23102.24780428  .00007238  00000+0  51734-3 0  9998
2 43017  97.6388 349.2013 0234770 287.0250  70.5364 14.85182088291391
FOX-1D (AO-92)          
1 43137U 18004AC  23102.21560024  .00033412  00000+0  79947-3 0  9990
2 43137  97.3319 180.9072 0005336  29.8419 330.3131 15.41378503292137
DIWATA-2B               
1 43678U 18084H   23102.45554149  .00001888  00000+0  18648-3 0  9998
2 43678  98.0101 245.1486 0010205  25.3318 334.8377 14.93167030242455
ES'HAIL 2               
1 43700U 18090A   23102.56299522  .00000141  00000+0  00000+0 0  9994
2 43700   0.0162 188.0238 0001327 220.9608  19.9757  1.00271110 16025
FOX-1CLIFF (AO-95)      
1 43770U 18099N   23102.36257905  .00005448  00000+0  45256-3 0  9998
2 43770  97.5767 165.6847 0012684 352.8462   7.2578 14.99085932237744
ITASAT 1                
1 43786U 18099AE  23102.48600421  .00004094  00000+0  34308-3 0  9995
2 43786  97.5816 166.8408 0014080 348.2526  11.8366 14.98878045237801
JY1SAT (JO-97)          
1 43803U 18099AX  23102.16042541  .00005817  00000+0  47163-3 0  9990
2 43803  97.5742 166.4580 0012926 337.0890  22.9755 14.99991879237798
UWE-4                   
1 43880U 18111E   23102.52849011  .00007486  00000+0  58396-3 0  9991
2 43880  97.6432   8.7506 0017962  42.4842 317.7769 15.01322226234510
NEXUS (FO-99)           
1 43937U 19003F   23102.03472113  .00048435  00000+0  99060-3 0  9998
2 43937  97.0960 130.3550 0016531 152.1168 208.0971 15.45834070235808
JAISAT-1                
1 44419U 19038F   23102.50936303  .00024003  00000+0  90405-3 0  9999
2 44419  97.6718  82.2160 0016479 162.5488 197.6320 15.26968915208507
DUCHIFAT-3              
1 44854U 19089C   23102.45089995  .00009197  00000+0  63849-3 0  9997
2 44854  36.9632 123.8359 0007855 150.2473 352.8861 15.05089015182923
CAS-6 (TIANQIN 1)       
1 44881U 19093C   23102.48739704  .00001375  00000+0  17823-3 0  9996
2 44881  97.8629 182.0576 0013546 295.0722  64.9086 14.82363616179069
RS-44 & BREEZE-KM R/B   
1 44909U 19096E   23102.54978739  .00000031  00000+0  84635-4 0  9994
2 44909  82.5259  31.5546 0217211 340.7606  18.5384 12.79719921153762
BY70-2                  
1 45857U 20042B   23102.49801622  .00021056  00000+0  23068-2 0  9991
2 45857  97.9274 182.2974 0009950 211.1570 148.9042 14.87744393149767
SALSAT                  
1 46495U 20068K   23102.40497142  .00006776  00000+0  45504-3 0  9999
2 46495  97.7640  49.7678 0015424 350.0988   9.9933 15.07041325139164
RADFXSAT-2 (AO-109)     
1 47311U 21002C   23102.55488950  .00025988  00000+0  74755-3 0  9995
2 47311  60.6821 310.2229 0027021 141.0123 219.2924 15.35373356124191
UVSQ-SAT                
1 47438U 21006AB  23102.14895763  .00015332  00000+0  66815-3 0  9998
2 47438  97.3917 160.2802 0008664 318.4259  41.6318 15.22249108122595
DIY-1 (ARDUIQUBE)       
1 47963U 21022AH  23102.48673770  .00106240  00000+0  25990-2 0  9995
2 47963  97.5036   8.4404 0012000 148.6455 211.5508 15.40312106112411
XW-3 (CAS-9)            
1 50466U 21131B   23102.52518129  .00000848  00000+0  29021-3 0  9996
2 50466  98.5527 184.2775 0003728 352.5880   7.5252 14.38818513 67910
TEVEL-3                 
1 50988U 22002E   23102.47098907  .00021708  00000+0  93985-3 0  9992
2 50988  97.4391 169.9910 0009837 109.0276  16.7574 15.22387749 68756
TEVEL-8                 
1 50989U 22002F   23102.48503500  .00021700  00000+0  94118-3 0  9995
2 50989  97.4409 170.0563 0009919 107.7845   7.1977 15.22327761 68751
TEVEL-5                 
1 50998U 22002Q   23102.44977093  .00022705  00000+0  96187-3 0  9997
2 50998  97.4383 170.2819 0010830 102.6120  27.6913 15.23108036 68774
TEVEL-6                 
1 50999U 22002R   23102.44868084  .00022603  00000+0  95747-3 0  9995
2 50999  97.4375 170.2768 0010887 103.5236  28.6433 15.23111765 68770
TEVEL-1                 
1 51013U 22002AF  23102.47911398  .00021667  00000+0  93924-3 0  9997
2 51013  97.4392 169.9512 0009622 108.1003  18.6297 15.22349171 68755
TEVEL-7                 
1 51062U 22002CG  23102.48673225  .00021750  00000+0  94301-3 0  9999
2 51062  97.4405 170.0338 0009820 107.5867   7.7860 15.22339250 68756
TEVEL-4                 
1 51063U 22002CH  23102.49306515  .00021660  00000+0  94029-3 0  9993
2 51063  97.4402 170.0273 0009717 107.0897  20.6217 15.22298954 68750
TEVEL-2                 
1 51069U 22002CP  23102.40767734  .00021748  00000+0  94168-3 0  9995
2 51069  97.4391 169.9021 0009639 108.1752  20.6390 15.22386641 68748
GREENCUBE               
1 53106U 22080B   23088.05176028 -.00000003  00000+0  00000+0 0  9999
2 53106  70.1795 347.5677 0008286 204.3079 155.7190  6.42557135 16603
RS29S (SXC3-2110 CYCLO*)
1 53373U 22096D   23102.46813578  .00033700  00000+0  10006-2 0  9991
2 53373  97.4188   8.1894 0003337  72.8242  39.4239 15.34715004 37595
RS32S (SXC3-212 MONITO*)
1 53374U 22096E   23102.47238258  .00029966  00000+0  90213-3 0  9997
2 53374  97.4165   8.1592 0003281  68.6276  41.9823 15.34301518 37592
RS34S (SXC3-218 KUZBAS*)
1 53375U 22096F   23102.48624234  .00025838  00000+0  81414-3 0  9999
2 53375  97.4198   8.0117 0003059  70.2179  34.1044 15.32881582 37585
RS23S (SXC3-21 UTMN)    
1 53376U 22096G   23102.53340455  .00026878  00000+0  83510-3 0  9990
2 53376  97.4190   8.1062 0003148  66.6959  58.4371 15.33321682 37596
RS28S (SXC3-214 MIET-A*)
1 53377U 22096H   23102.55303332  .00024228  00000+0  76683-3 0  9996
2 53377  97.4194   8.0857 0002957  63.9100  59.3687 15.32751293 37591
RS26S (KAI-1)           
1 53378U 22096J   23102.47026279  .00020255  00000+0  66253-3 0  9998
2 53378  97.4208   7.8902 0002779  60.4545  49.6651 15.31731516 37579
RS19S (SXC3-219 ISOI)   
1 53381U 22096M   23102.46720902  .00025239  00000+0  78042-3 0  9991
2 53381  97.4187   8.1868 0001966 338.7724 138.7168 15.33489562 37599
RS21S (CUBESX-HSE-2)    
1 53383U 22096P   23102.51721558  .00026383  00000+0  80991-3 0  9994
2 53383  97.4192   8.2747 0002165 338.7393 125.9115 15.33710472 37607
RS30S (SXC3-217 SIREN)  
1 53384U 22096Q   23102.56324253  .00022160  00000+0  70169-3 0  9996
2 53384  97.4206   8.2249 0001993 324.9037 156.3506 15.32757986 37603
RS20S (GEOSCAN-EDELVEIS)
1 53385U 22096R   23102.56432963  .00034869  00000+0  98952-3 0  9994
2 53385  97.4179   8.6627 0002028 331.5900 150.2780 15.36132612 37660
RS33S (SXC3-215 VIZARD) 
1 53386U 22096S   23102.47678373  .00044460  00000+0  11670-2 0  9991
2 53386  97.4185   8.9244 0002097 328.4716 141.2096 15.38502874 37665
CAS-5A (FO-118)         
1 54684U 22167C   23102.48951683  .00015324  00000+0  88541-3 0  9990
2 54684  97.5511 240.6341 0014403 197.4482 208.5907 15.12305174 18744
